{"type": "FeatureCollection", "features": [ {"type": "Feature", "properties": {"norad_id": 44476, "name": "INTELSAT 39 (IS-39)", "group": "intelsat", "lat": -0.0423967375710584, "lon": -106.68980772025564, "alt_km": 35788.59901067921, "timestamp": "2025-12-17T07:00:46.559850+00:00", "meta": {"OBJECT_NAME": "INTELSAT 39 (IS-39)", "OBJECT_ID": "2019-049B", "EPOCH": "2025-12-16T15:21:48.311136", "MEAN_MOTION": 1.00270803, "ECCENTRICITY": 0.00013758, "INCLINATION": 0.0182, "RA_OF_ASC_NODE": 330.6719, "ARG_OF_PERICENTER": 169.661, "MEAN_ANOMALY": 237.5916, "EPHEMERIS_TYPE": 0, "CLASSIFICATION_TYPE": "U", "NORAD_CAT_ID": 44476, "ELEMENT_SET_NO": 999, "REV_AT_EPOCH": 2329, "BSTAR": 0, "MEAN_MOTION_DOT": 5.7e-07, "MEAN_MOTION_DDOT": 0}, "tle": {"line1": "1 44476U 19049B   25350.64014249  .00000057  00000+0  00000+0 0  9993", "line2": "2 44476   0.0182 330.6719 0001375 169.6610 237.5916  1.00270803 23292"}}, "geometry": {"type": "Point", "coordinates": [-106.68980772025564, -0.0423967375710584]}}, {"type": "Feature", "properties": {"norad_id": 46114, "name": "GALAXY 30 (G-30)", "group": "intelsat", "lat": 0.037735490903611106, "lon": 66.36290693693769, "alt_km": 35794.33594685244, "timestamp": "2025-12-17T07:00:46.559862+00:00", "meta": {"OBJECT_NAME": "GALAXY 30 (G-30)", "OBJECT_ID": "2020-056C", "EPOCH": "2025-12-16T10:32:38.625216", "MEAN_MOTION": 1.00271809, "ECCENTRICITY": 0.00020504, "INCLINATION": 0.0174, "RA_OF_ASC_NODE": 8.9673, "ARG_OF_PERICENTER": 254.0657, "MEAN_ANOMALY": 215.4609, "EPHEMERIS_TYPE": 0, "CLASSIFICATION_TYPE": "U", "NORAD_CAT_ID": 46114, "ELEMENT_SET_NO": 999, "REV_AT_EPOCH": 1946, "BSTAR": 0, "MEAN_MOTION_DOT": 6e-07, "MEAN_MOTION_DDOT": 0}, "tle": {"line1": "1 46114U 20056C   25350.43933594  .00000060  00000+0  00000+0 0  9998", "line2": "2 46114   0.0174   8.9673 0002050 254.0657 215.4609  1.00271809 19464"}}, "geometry": {"type": "Point", "coordinates": [66.36290693693769, 0.037735490903611106]}}, {"type": "Feature", "properties": {"norad_id": 54026, "name": "GALAXY 33 (G-33)", "group": "intelsat", "lat": 0.038047545425522265, "lon": 58.37372857158523, "alt_km": 35792.53097577453, "timestamp": "2025-12-17T07:00:46.559874+00:00", "meta": {"OBJECT_NAME": "GALAXY 33 (G-33)", "OBJECT_ID": "2022-128A", "EPOCH": "2025-12-16T16:08:58.794144", "MEAN_MOTION": 1.00273301, "ECCENTRICITY": 0.00017622, "INCLINATION": 0.0159, "RA_OF_ASC_NODE": 355.4213, "ARG_OF_PERICENTER": 264.714, "MEAN_ANOMALY": 294.6799, "EPHEMERIS_TYPE": 0, "CLASSIFICATION_TYPE": "U", "NORAD_CAT_ID": 54026, "ELEMENT_SET_NO": 999, "REV_AT_EPOCH": 1191, "BSTAR": 0, "MEAN_MOTION_DOT": 1.03e-06, "MEAN_MOTION_DDOT": 0}, "tle": {"line1": "1 54026U 22128A   25350.67290271  .00000103  00000+0  00000+0 0  9993", "line2": "2 54026   0.0159 355.4213 0001762 264.7140 294.6799  1.00273301 11912"}}, "geometry": {"type": "Point", "coordinates": [58.37372857158523, 0.038047545425522265]}}, {"type": "Feature", "properties": {"norad_id": 54027, "name": "GALAXY 34 (G-34)", "group": "intelsat", "lat": 0.0485744796310658, "lon": 62.43342707758911, "alt_km": 35791.90827079868, "timestamp": "2025-12-17T07:00:46.559887+00:00", "meta": {"OBJECT_NAME": "GALAXY 34 (G-34)", "OBJECT_ID": "2022-128B", "EPOCH": "2025-12-16T10:54:44.613792", "MEAN_MOTION": 1.00271358, "ECCENTRICITY": 0.00014405, "INCLINATION": 0.0238, "RA_OF_ASC_NODE": 335.9527, "ARG_OF_PERICENTER": 285.2083, "MEAN_ANOMALY": 218.9464, "EPHEMERIS_TYPE": 0, "CLASSIFICATION_TYPE": "U", "NORAD_CAT_ID": 54027, "ELEMENT_SET_NO": 999, "REV_AT_EPOCH": 1208, "BSTAR": 0, "MEAN_MOTION_DOT": 0, "MEAN_MOTION_DDOT": 0}, "tle": {"line1": "1 54027U 22128B   25350.45468303  .00000000  00000+0  00000+0 0  9999", "line2": "2 54027   0.0238 335.9527 0001440 285.2083 218.9464  1.00271358 12086"}}, "geometry": {"type": "Point", "coordinates": [62.43342707758911, 0.0485744796310658]}}, {"type": "Feature", "properties": {"norad_id": 54243, "name": "GALAXY 31 (G-31)", "group": "intelsat", "lat": 0.033493240809248336, "lon": 70.35621110996053, "alt_km": 35791.43544219851, "timestamp": "2025-12-17T07:00:46.559899+00:00", "meta": {"OBJECT_NAME": "GALAXY 31 (G-31)", "OBJECT_ID": "2022-153A", "EPOCH": "2025-12-16T16:12:22.196160", "MEAN_MOTION": 1.00271723, "ECCENTRICITY": 0.00014666, "INCLINATION": 0.0164, "RA_OF_ASC_NODE": 21.1296, "ARG_OF_PERICENTER": 259.4145, "MEAN_ANOMALY": 287.106, "EPHEMERIS_TYPE": 0, "CLASSIFICATION_TYPE": "U", "NORAD_CAT_ID": 54243, "ELEMENT_SET_NO": 999, "REV_AT_EPOCH": 530, "BSTAR": 0, "MEAN_MOTION_DOT": 0, "MEAN_MOTION_DDOT": 0}, "tle": {"line1": "1 54243U 22153A   25350.67525690  .00000000  00000+0  00000+0 0  9994", "line2": "2 54243   0.0164  21.1296 0001466 259.4145 287.1060  1.00271723  5304"}}, "geometry": {"type": "Point", "coordinates": [70.35621110996053, 0.033493240809248336]}}, {"type": "Feature", "properties": {"norad_id": 54244, "name": "GALAXY 32 (G-32)", "group": "intelsat", "lat": 0.028113803993666715, "lon": 100.37073858438059, "alt_km": 35794.74449073619, "timestamp": "2025-12-17T07:00:46.559910+00:00", "meta": {"OBJECT_NAME": "GALAXY 32 (G-32)", "OBJECT_ID": "2022-153B", "EPOCH": "2025-12-16T09:02:30.087168", "MEAN_MOTION": 1.00271706, "ECCENTRICITY": 0.00025483, "INCLINATION": 0.0098, "RA_OF_ASC_NODE": 331.441, "ARG_OF_PERICENTER": 345.8415, "MEAN_ANOMALY": 172.6123, "EPHEMERIS_TYPE": 0, "CLASSIFICATION_TYPE": "U", "NORAD_CAT_ID": 54244, "ELEMENT_SET_NO": 999, "REV_AT_EPOCH": 1131, "BSTAR": 0, "MEAN_MOTION_DOT": -1.51e-06, "MEAN_MOTION_DDOT": 0}, "tle": {"line1": "1 54244U 22153B   25350.37673712 -.00000151  00000+0  00000+0 0  9999", "line2": "2 54244   0.0098 331.4410 0002548 345.8415 172.6123  1.00271706 11315"}}, "geometry": {"type": "Point", "coordinates": [100.37073858438059, 0.028113803993666715]}}, {"type": "Feature", "properties": {"norad_id": 54741, "name": "GALAXY 35 (G-35)", "group": "intelsat", "lat": 0.03976913857430714, "lon": 98.22633449538509, "alt_km": 35796.33657313609, "timestamp": "2025-12-17T07:00:46.559922+00:00", "meta": {"OBJECT_NAME": "GALAXY 35 (G-35)", "OBJECT_ID": "2022-170A", "EPOCH": "2025-12-16T09:02:06.067968", "MEAN_MOTION": 1.00269185, "ECCENTRICITY": 0.00022557, "INCLINATION": 0.0168, "RA_OF_ASC_NODE": 359.4388, "ARG_OF_PERICENTER": 272.3314, "MEAN_ANOMALY": 215.9085, "EPHEMERIS_TYPE": 0, "CLASSIFICATION_TYPE": "U", "NORAD_CAT_ID": 54741, "ELEMENT_SET_NO": 999, "REV_AT_EPOCH": 1106, "BSTAR": 0, "MEAN_MOTION_DOT": 0, "MEAN_MOTION_DDOT": 0}, "tle": {"line1": "1 54741U 22170A   25350.37645912  .00000000  00000+0  00000+0 0  9993", "line2": "2 54741   0.0168 359.4388 0002255 272.3314 215.9085  1.00269185 11064"}}, "geometry": {"type": "Point", "coordinates": [98.22633449538509, 0.03976913857430714]}}, {"type": "Feature", "properties": {"norad_id": 54742, "name": "GALAXY 36 (G-36)", "group": "intelsat", "lat": 0.009539301451932679, "lon": 102.35725635006135, "alt_km": 35787.05155726764, "timestamp": "2025-12-17T07:00:46.559934+00:00", "meta": {"OBJECT_NAME": "GALAXY 36 (G-36)", "OBJECT_ID": "2022-170B", "EPOCH": "2025-12-16T14:38:44.933856", "MEAN_MOTION": 1.00271369, "ECCENTRICITY": 3.152e-05, "INCLINATION": 0.0154, "RA_OF_ASC_NODE": 268.8557, "ARG_OF_PERICENTER": 65.6179, "MEAN_ANOMALY": 241.715, "EPHEMERIS_TYPE": 0, "CLASSIFICATION_TYPE": "U", "NORAD_CAT_ID": 54742, "ELEMENT_SET_NO": 999, "REV_AT_EPOCH": 1094, "BSTAR": 0, "MEAN_MOTION_DOT": -1.61e-06, "MEAN_MOTION_DDOT": 0}, "tle": {"line1": "1 54742U 22170B   25350.61024229 -.00000161  00000+0  00000+0 0  9992", "line2": "2 54742   0.0154 268.8557 0000315  65.6179 241.7150  1.00271369 10941"}}, "geometry": {"type": "Point", "coordinates": [102.35725635006135, 0.009539301451932679]}}, {"type": "Feature", "properties": {"norad_id": 57493, "name": "GALAXY 37 (G-37)", "group": "intelsat", "lat": 0.021635897928314753, "lon": 64.37734940885102, "alt_km": 35793.26006152924, "timestamp": "2025-12-17T07:00:46.559945+00:00", "meta": {"OBJECT_NAME": "GALAXY 37 (G-37)", "OBJECT_ID": "2023-112A", "EPOCH": "2025-12-15T23:03:25.663680", "MEAN_MOTION": 1.00272925, "ECCENTRICITY": 0.00019988, "INCLINATION": 0.0242, "RA_OF_ASC_NODE": 56.2601, "ARG_OF_PERICENTER": 214.3075, "MEAN_ANOMALY": 33.1555, "EPHEMERIS_TYPE": 0, "CLASSIFICATION_TYPE": "U", "NORAD_CAT_ID": 57493, "ELEMENT_SET_NO": 999, "REV_AT_EPOCH": 870, "BSTAR": 0, "MEAN_MOTION_DOT": 7e-07, "MEAN_MOTION_DDOT": 0}, "tle": {"line1": "1 57493U 23112A   25349.96071370  .00000070  00000+0  00000+0 0  9998", "line2": "2 57493   0.0242  56.2601 0001998 214.3075  33.1555  1.00272925  8702"}}, "geometry": {"type": "Point", "coordinates": [64.37734940885102, 0.021635897928314753]}}]}